[{"OBJECT_NAME":"STARLINK-6370","OBJECT_ID":"2023-099AX","EPOCH":"2026-03-09T12:06:38.434464","MEAN_MOTION":15.02544988,"ECCENTRICITY":9.675e-5,"INCLINATION":43.0023,"RA_OF_ASC_NODE":237.3724,"ARG_OF_PERICENTER":243.7465,"MEAN_ANOMALY":116.3278,"EPHEMERIS_TYPE":0,"CLASSIFICATION_TYPE":"U","NORAD_CAT_ID":57373,"ELEMENT_SET_NO":999,"REV_AT_EPOCH":14623,"BSTAR":-1.0825134e-5,"MEAN_MOTION_DOT":-3.5e-6,"MEAN_MOTION_DDOT":0},{"OBJECT_NAME":"SL-8 R\/B","OBJECT_ID":"1968-040B","EPOCH":"2026-03-09T18:37:46.369632","MEAN_MOTION":15.03260494,"ECCENTRICITY":0.00239141,"INCLINATION":74.0322,"RA_OF_ASC_NODE":313.5182,"ARG_OF_PERICENTER":137.361,"MEAN_ANOMALY":222.9441,"EPHEMERIS_TYPE":0,"CLASSIFICATION_TYPE":"U","NORAD_CAT_ID":3230,"ELEMENT_SET_NO":999,"REV_AT_EPOCH":9002,"BSTAR":0.00025747843,"MEAN_MOTION_DOT":3.469e-5,"MEAN_MOTION_DDOT":0}]
